OBJECT_NAME,OBJECT_ID,EPOCH,MEAN_MOTION,ECCENTRICITY,INCLINATION,RA_OF_ASC_NODE,ARG_OF_PERICENTER,MEAN_ANOMALY,EPHEMERIS_TYPE,CLASSIFICATION_TYPE,NORAD_CAT_ID,ELEMENT_SET_NO,REV_AT_EPOCH,BSTAR,MEAN_MOTION_DOT,MEAN_MOTION_DDOT
SPACEMOBILE-004,2024-163E,2026-07-12T00:10:13.520352,15.20795354,.00060954,52.9667,194.7854,215.6608,144.3979,0,U,61049,999,10154,.5333705E-3,.11603E-3,0
CZ-8A R/B,2025-231K,2026-07-12T13:20:58.939872,14.30161741,.01165233,50.0049,291.3864,313.3185,45.8061,0,U,66004,999,3857,.23599872E-4,-.98E-6,0
SZ-21 MODULE,2025-246C,2026-07-12T05:20:23.569728,15.78595026,.0007591,41.4697,151.1451,200.3493,159.7051,0,U,66515,999,3769,.19171E-3,.34298E-3,0
SPACEMOBILE-006,2025-309A,2026-07-12T02:49:34.429440,15.18648870,.00103537,52.9937,217.4329,205.0874,154.9618,0,U,67232,999,3038,.29209109E-4,.291E-5,0
SPACEMOBILE-008,2026-139A,2026-07-12T01:08:45.878208,15.12799678,.00049165,52.9943,149.6970,49.0948,311.0468,0,U,69589,999,374,.15283293E-4,-.3E-6,0
SPACEMOBILE-009,2026-139B,2026-07-12T12:17:15.486720,15.12693207,.00051882,52.9935,147.6033,45.7996,314.3420,0,U,69590,999,381,.10977426E-4,-.107E-5,0
SPACEMOBILE-010,2026-139C,2026-07-12T06:00:42.241824,15.12524273,.0005089,52.9941,148.8229,36.8911,323.2429,0,U,69591,999,378,.13955E-4,-.55E-6,0
